HULIANWANG DIGUI-153    
1 67529U 26013H   26043.26406470 -.00000125  00000+0  16334-4 0  9994
2 67529  50.0072  89.4374 0001301 322.0954  37.9849 13.79514550  3339
HULIANWANG DIGUI-154    
1 67530U 26013J   26043.33376307  .00000033  00000+0  16974-3 0  9995
2 67530  50.0011  89.1466 0004223 185.3162 174.7688 13.79360636  3346
CZ-12 R/B               
1 67531U 26013K   26044.30903653 -.00000106  00000+0  24917-4 0  9993
2 67531  49.9940  81.6091 0069052 213.8608 145.7882 14.14458025  3534
STARLINK-36587          
1 67532U 26014A   26045.63425985  .00215890  00000+0  10952-2 0  9998
2 67532  97.2829 289.4248 0002372 107.9257 252.2270 15.80914714  4941
STARLINK-36417          
1 67533U 26014B   26045.60252223  .00155417  00000+0  10216-2 0  9990
2 67533  97.2845 289.3139 0001406  74.3189 285.8231 15.75244771  4937
STARLINK-36576          
1 67534U 26014C   26045.63287174  .00168213  00000+0  85912-3 0  9991
2 67534  97.2832 289.4270 0001393  96.4070 263.7357 15.80891847  4943
STARLINK-36574          
1 67535U 26014D   26045.63158773  .00125407  00000+0  64351-3 0  9996
2 67535  97.2834 289.4289 0000235  62.9783 297.1509 15.80903523  4944
STARLINK-36572          
1 67536U 26014E   26045.65229082  .00110833  00000+0  73376-3 0  9995
2 67536  97.2844 289.3994 0001124  97.4230 262.7163 15.75208185  4946
STARLINK-36561          
1 67537U 26014F   26045.65828358  .00124412  00000+0  82100-3 0  9990
2 67537  97.2851 289.3892 0001210 113.2479 246.8914 15.75243244  4942
STARLINK-36397          
1 67538U 26014G   26045.59864072  .00199988  00000+0  13069-2 0  9994
2 67538  97.2849 289.3174 0001697 104.7453 255.4000 15.75253796  4933
STARLINK-36573          
1 67539U 26014H   26045.62748692  .00195099  00000+0  99303-3 0  9993
2 67539  97.2837 289.4325 0001475 107.4564 252.6865 15.80896210  4946
STARLINK-36585          
1 67540U 26014J   26045.65405407  .00076297  00000+0  50757-3 0  9990
2 67540  97.2853 289.3935 0001258 107.8474 252.2928 15.75202175  4946
